[{"OBJECT_NAME":"HERMES-3","OBJECT_ID":"2025-052BR","EPOCH":"2026-03-09T22:30:01.073952","MEAN_MOTION":15.30039786,"ECCENTRICITY":0.00079928,"INCLINATION":97.3987,"RA_OF_ASC_NODE":324.6131,"ARG_OF_PERICENTER":112.9583,"MEAN_ANOMALY":247.2502,"EPHEMERIS_TYPE":0,"CLASSIFICATION_TYPE":"U","NORAD_CAT_ID":63835,"ELEMENT_SET_NO":999,"REV_AT_EPOCH":5486,"BSTAR":0.0006995793,"MEAN_MOTION_DOT":0.00020316,"MEAN_MOTION_DDOT":0},{"OBJECT_NAME":"STARLINK-35694","OBJECT_ID":"2025-257K","EPOCH":"2026-03-09T16:04:04.417248","MEAN_MOTION":15.30200096,"ECCENTRICITY":0.00012687,"INCLINATION":53.1607,"RA_OF_ASC_NODE":216.8869,"ARG_OF_PERICENTER":78.5683,"MEAN_ANOMALY":281.546,"EPHEMERIS_TYPE":0,"CLASSIFICATION_TYPE":"U","NORAD_CAT_ID":66389,"ELEMENT_SET_NO":999,"REV_AT_EPOCH":1973,"BSTAR":0.00083579024,"MEAN_MOTION_DOT":0.00024476,"MEAN_MOTION_DDOT":0}]
